$$SOE
2460154.500000000, A.D. 2023-Jul-29 00:00:00.0000, -2.435392486925207E+08, -1.896978141147705E+08, 8.827960652455604E+07,
2460161.500000000, A.D. 2023-Aug-05 00:00:00.0000, -2.368050194363569E+08, -1.986345587759807E+08, 8.473880391819924E+07,
2460168.500000000, A.D. 2023-Aug-12 00:00:00.0000, -2.297216634225416E+08, -2.072783985859606E+08, 8.107305189811334E+07,
2460175.500000000, A.D. 2023-Aug-19 00:00:00.0000, -2.222976222557982E+08, -2.156147780602212E+08, 7.728704843874010E+07,
2460182.500000000, A.D. 2023-Aug-26 00:00:00.0000, -2.145418221260478E+08, -2.236293070821515E+08, 7.338568378163242E+07,
2460189.500000000, A.D. 2023-Sep-02 00:00:00.0000, -2.064636836274057E+08, -2.313077734233909E+08, 6.937404360970315E+07,
2460196.500000000, A.D. 2023-Sep-09 00:00:00.0000, -1.980731319425781E+08, -2.386361567646118E+08, 6.525741226277312E+07,
2460203.500000000, A.D. 2023-Sep-16 00:00:00.0000, -1.893806071547495E+08, -2.456006443696562E+08, 6.104127593726492E+07,
2460210.500000000, A.D. 2023-Sep-23 00:00:00.0000, -1.803970741921570E+08, -2.521876482228571E+08, 5.673132581447767E+07,
2460217.500000000, A.D. 2023-Sep-30 00:00:00.0000, -1.711340326565347E+08, -2.583838225356201E+08, 5.233346120073000E+07,
2460224.500000000, A.D. 2023-Oct-07 00:00:00.0000, -1.616035287883888E+08, -2.641760822611622E+08, 4.785379280065560E+07,
2460231.500000000, A.D. 2023-Oct-14 00:00:00.0000, -1.518181684160382E+08, -2.695516260288153E+08, 4.329864570291124E+07,
2460238.500000000, A.D. 2023-Oct-21 00:00:00.0000, -1.417911275368523E+08, -2.744979619955698E+08, 3.867456185477641E+07,
2460245.500000000, A.D. 2023-Oct-28 00:00:00.0000, -1.315361618198225E+08, -2.790029344508547E+08, 3.398830227686869E+07,
2460252.500000000, A.D. 2023-Nov-04 00:00:00.0000, -1.210676161284019E+08, -2.830547520341202E+08, 2.924684899851324E+07,
2460259.500000000, A.D. 2023-Nov-11 00:00:00.0000, -1.104004337177057E+08, -2.866420182466419E+08, 2.445740657017851E+07,
2460266.500000000, A.D. 2023-Nov-18 00:00:00.0000, -9.955016469869193E+07, -2.897537643953658E+08, 1.962740304223207E+07,
2460273.500000000, A.D. 2023-Nov-25 00:00:00.0000, -8.853297348895827E+07, -2.923794850134047E+08, 1.476449031360529E+07,
2460280.500000000, A.D. 2023-Dec-02 00:00:00.0000, -7.736564499776603E+07, -2.945091758273661E+08, 9.876543749345139E+06,
2460287.500000000, A.D. 2023-Dec-09 00:00:00.0000, -6.606558922656719E+07, -2.961333743744246E+08, 4.971660950369790E+06,
2460294.500000000, A.D. 2023-Dec-16 00:00:00.0000, -5.465084373679641E+07, -2.972432032805862E+08, 5.815953727369010E+04,
2460301.500000000, A.D. 2023-Dec-23 00:00:00.0000, -4.314007335497172E+07, -2.978304155142968E+08, -4.855426148148134E+06,
2460308.500000000, A.D. 2023-Dec-30 00:00:00.0000, -3.155256815377079E+07, -2.978874405407166E+08, -9.760349342602089E+06,
2460315.500000000, A.D. 2024-Jan-06 00:00:00.0000, -1.990824115944657E+07, -2.974074336793314E+08, -1.464765632639383E+07,
2460322.500000000, A.D. 2024-Jan-13 00:00:00.0000, -8.227622270830366E+06, -2.963843303813490E+08, -1.950819363117504E+07,
2460329.500000000, A.D. 2024-Jan-20 00:00:00.0000, 3.468153191227729E+06, -2.948129022169085E+08, -2.433261699209167E+07,
2460336.500000000, A.D. 2024-Jan-27 00:00:00.0000, 1.515735964720605E+07, -2.926888137498400E+08, -2.911140194791806E+07,
2460343.500000000, A.D. 2024-Feb-03 00:00:00.0000, 2.681770009267635E+07, -2.900086810301479E+08, -3.383485627046511E+07,
2460350.500000000, A.D. 2024-Feb-10 00:00:00.0000, 3.842632927473795E+07, -2.867701317276396E+08, -3.849313441517925E+07,
2460357.500000000, A.D. 2024-Feb-17 00:00:00.0000, 4.995988174503919E+07, -2.829718665762793E+08, -4.307625414665769E+07,
2460364.500000000, A.D. 2024-Feb-24 00:00:00.0000, 6.139450521258255E+07, -2.786137217279412E+08, -4.757411547905816E+07,
2460371.500000000, A.D. 2024-Mar-02 00:00:00.0000, 7.270589959775403E+07, -2.736967315900928E+08, -5.197652206530540E+07,
2460378.500000000, A.D. 2024-Mar-09 00:00:00.0000, 8.386936227565749E+07, -2.682231916746418E+08, -5.627320516408148E+07,
2460385.500000000, A.D. 2024-Mar-16 00:00:00.0000, 9.485984022900492E+07, -2.621967206420192E+08, -6.045385029111665E+07,
2460392.500000000, A.D. 2024-Mar-23 00:00:00.0000, 1.056519893094947E+08, -2.556223197383586E+08, -6.450812651684080E+07,
2460399.500000000, A.D. 2024-Mar-30 00:00:00.0000, 1.162202386304119E+08, -2.485064289011354E+08, -6.842571824993826E+07,
2460406.500000000, A.D. 2024-Apr-06 00:00:00.0000, 1.265388605418649E+08, -2.408569820913083E+08, -7.219635982549380E+07,
2460413.500000000, A.D. 2024-Apr-13 00:00:00.0000, 1.365820498476002E+08, -2.326834601414126E+08, -7.580987314075555E+07,
2460420.500000000, A.D. 2024-Apr-20 00:00:00.0000, 1.463240113222017E+08, -2.239969375026888E+08, -7.925620797247158E+07,
2460427.500000000, A.D. 2024-Apr-27 00:00:00.0000, 1.557390539188831E+08, -2.148101224511445E+08, -8.252548476979885E+07,
2460434.500000000, A.D. 2024-May-04 00:00:00.0000, 1.648016915506811E+08, -2.051373904097915E+08, -8.560803982062286E+07,
2460441.500000000, A.D. 2024-May-11 00:00:00.0000, 1.734867503534034E+08, -1.949948094190711E+08, -8.849447259757218E+07,
2460448.500000000, A.D. 2024-May-18 00:00:00.0000, 1.817694820439737E+08, -1.844001566613528E+08, -9.117569500725242E+07,
2460455.500000000, A.D. 2024-May-25 00:00:00.0000, 1.896256827797667E+08, -1.733729249926008E+08, -9.364298220173872E+07,
2460462.500000000, A.D. 2024-Jun-01 00:00:00.0000, 1.970318168006835E+08, -1.619343185232682E+08, -9.588802455326714E+07,
2460469.500000000, A.D. 2024-Jun-08 00:00:00.0000, 2.039651441668620E+08, -1.501072363181745E+08, -9.790298034387228E+07,
2460476.500000000, A.D. 2024-Jun-15 00:00:00.0000, 2.104038519108053E+08, -1.379162428171265E+08, -9.968052863696638E+07,
2460483.500000000, A.D. 2024-Jun-22 00:00:00.0000, 2.163271863666640E+08, -1.253875230859129E+08, -1.012139215694873E+08,
2460490.500000000, A.D. 2024-Jun-29 00:00:00.0000, 2.217155831716536E+08, -1.125488241593643E+08, -1.024970353929790E+08,
2460497.500000000, A.D. 2024-Jul-06 00:00:00.0000, 2.265507960721934E+08, -9.942938456302358E+07, -1.035244200367044E+08,
2460504.500000000, A.D. 2024-Jul-13 00:00:00.0000, 2.308160248759595E+08, -8.605984901452307E+07, -1.042913464446500E+08,
2460511.500000000, A.D. 2024-Jul-20 00:00:00.0000, 2.344960388860779E+08, -7.247216722237799E+07, -1.047938507056576E+08,
2460518.500000000, A.D. 2024-Jul-27 00:00:00.0000, 2.375772934397203E+08, -5.869947806486814E+07, -1.050287742924501E+08,
2460525.500000000, A.D. 2024-Aug-03 00:00:00.0000, 2.400480380953083E+08, -4.477598011414450E+07, -1.049937997803540E+08,
2460532.500000000, A.D. 2024-Aug-10 00:00:00.0000, 2.418984149398611E+08, -3.073678937299468E+07, -1.046874814121542E+08,
2460539.500000000, A.D. 2024-Aug-17 00:00:00.0000, 2.431205454471351E+08, -1.661778533646443E+07, -1.041092699166521E+08,
2460546.500000000, A.D. 2024-Aug-24 00:00:00.0000, 2.437086044190590E+08, -2.455446795414321E+06, -1.032595310626754E+08,
2460553.500000000, A.D. 2024-Aug-31 00:00:00.0000, 2.436588797937042E+08, 1.171332091745642E+07, -1.021395575300479E+08,
2460560.500000000, A.D. 2024-Sep-07 00:00:00.0000, 2.429698175485091E+08, 2.585136550859293E+07, -1.007515737836591E+08,
2460567.500000000, A.D. 2024-Sep-14 00:00:00.0000, 2.416420508752425E+08, 3.992147310220487E+07, -9.909873364600362E+07,
2460574.500000000, A.D. 2024-Sep-21 00:00:00.0000, 2.396784109712711E+08, 5.388655768158319E+07, -9.718511025397889E+07,
2460581.500000000, A.D. 2024-Sep-28 00:00:00.0000, 2.370839186336378E+08, 6.770984911275813E+07, -9.501567866356565E+07,
2460588.500000000, A.D. 2024-Oct-05 00:00:00.0000, 2.338657602793570E+08, 8.135507745747244E+07, -9.259629159425558E+07,
2460595.500000000, A.D. 2024-Oct-12 00:00:00.0000, 2.300332482833766E+08, 9.478665429385060E+07, -8.993364831240392E+07,
2460602.500000000, A.D. 2024-Oct-19 00:00:00.0000, 2.255977644415431E+08, 1.079698485889786E+08, -8.703525691500905E+07,
2460609.500000000, A.D. 2024-Oct-26 00:00:00.0000, 2.205726873676387E+08, 1.208709542613683E+08, -8.390939058472410E+07,
2460616.500000000, A.D. 2024-Nov-02 00:00:00.0000, 2.149733051781305E+08, 1.334574473987843E+08, -8.056503845425208E+07,
2460623.500000000, A.D. 2024-Nov-09 00:00:00.0000, 2.088167148814379E+08, 1.456981314831353E+08, -7.701185177169189E+07,
2460630.500000000, A.D. 2024-Nov-16 00:00:00.0000, 2.021217100074571E+08, 1.575632692037447E+08, -7.326008612184359E+07,
2460637.500000000, A.D. 2024-Nov-23 00:00:00.0000, 1.949086581867189E+08, 1.690246996635851E+08, -6.932054051505220E+07,
2460644.500000000, A.D. 2024-Nov-30 00:00:00.0000, 1.871993706633413E+08, 1.800559400787203E+08, -6.520449419837701E+07,
2460651.500000000, A.D. 2024-Dec-07 00:00:00.0000, 1.790169660098001E+08, 1.906322718259514E+08, -6.092364203042802E+07,
2460658.500000000, A.D. 2024-Dec-14 00:00:00.0000, 1.703857292200105E+08, 2.007308117729225E+08, -5.649002906819339E+07,
2460665.500000000, A.D. 2024-Dec-21 00:00:00.0000, 1.613309656819430E+08, 2.103305676473199E+08, -5.191598502136831E+07,
2460672.500000000, A.D. 2024-Dec-28 00:00:00.0000, 1.518788537835488E+08, 2.194124747666818E+08, -4.721405972973803E+07,
2460679.500000000, A.D. 2025-Jan-04 00:00:00.0000, 1.420563004486786E+08, 2.279594169990739E+08, -4.239696037163035E+07,
2460686.500000000, A.D. 2025-Jan-11 00:00:00.0000, 1.318907993205886E+08, 2.359562342899808E+08, -3.747749067517362E+07,
2460693.500000000, A.D. 2025-Jan-18 00:00:00.0000, 1.214102920412408E+08, 2.433897166943389E+08, -3.246849262317770E+07,
2460700.500000000, A.D. 2025-Jan-25 00:00:00.0000, 1.106430340588008E+08, 2.502485854632261E+08, -2.738279114695559E+07,
2460707.500000000, A.D. 2025-Feb-01 00:00:00.0000, 9.961746618212688E+07, 2.565234623197512E+08, -2.223314219796173E+07,
2460714.500000000, A.D. 2025-Feb-08 00:00:00.0000, 8.836209282287374E+07, 2.622068281936617E+08, -1.703218449240033E+07,
2460721.500000000, A.D. 2025-Feb-15 00:00:00.0000, 7.690536767386606E+07, 2.672929726708325E+08, -1.179239513600203E+07,
$$EOE